{"type": "FeatureCollection", "features": [ {"type": "Feature", "properties": {"norad_id": 33799, "name": "COSMOS 2251 DEB", "group": "cosmos-2251-debris", "lat": 36.868345678408076, "lon": 112.46885864295828, "alt_km": 640.5910232888245, "timestamp": "2025-12-03T10:52:57.848633+00:00", "meta": {"OBJECT_NAME": "COSMOS 2251 DEB", "OBJECT_ID": "1993-036AQ", "EPOCH": "2025-12-02T19:01:32.837088", "MEAN_MOTION": 14.79295167, "ECCENTRICITY": 0.0024613, "INCLINATION": 74.0313, "RA_OF_ASC_NODE": 101.3679, "ARG_OF_PERICENTER": 174.6604, "MEAN_ANOMALY": 307.1207, "EPHEMERIS_TYPE": 0, "CLASSIFICATION_TYPE": "U", "NORAD_CAT_ID": 33799, "ELEMENT_SET_NO": 999, "REV_AT_EPOCH": 88664, "BSTAR": 0.0023522, "MEAN_MOTION_DOT": 0.00017603, "MEAN_MOTION_DDOT": 0}, "tle": {"line1": "1 33799U 93036AQ  25336.79274117  .00017603  00000+0  23522-2 0  9991", "line2": "2 33799  74.0313 101.3679 0024613 174.6604 307.1207 14.79295167886645"}}, "geometry": {"type": "Point", "coordinates": [112.46885864295828, 36.868345678408076]}}, {"type": "Feature", "properties": {"norad_id": 33805, "name": "COSMOS 2251 DEB", "group": "cosmos-2251-debris", "lat": 3.8729694794426517, "lon": 147.88689366897572, "alt_km": 660.9179930420878, "timestamp": "2025-12-03T10:52:57.848655+00:00", "meta": {"OBJECT_NAME": "COSMOS 2251 DEB", "OBJECT_ID": "1993-036AW", "EPOCH": "2025-12-03T01:50:44.700000", "MEAN_MOTION": 14.57818572, "ECCENTRICITY": 0.0060628, "INCLINATION": 74.0305, "RA_OF_ASC_NODE": 329.7137, "ARG_OF_PERICENTER": 161.3863, "MEAN_ANOMALY": 198.9539, "EPHEMERIS_TYPE": 0, "CLASSIFICATION_TYPE": "U", "NORAD_CAT_ID": 33805, "ELEMENT_SET_NO": 999, "REV_AT_EPOCH": 89086, "BSTAR": 0.00032941, "MEAN_MOTION_DOT": 1.516e-05, "MEAN_MOTION_DDOT": 0}, "tle": {"line1": "1 33805U 93036AW  25337.07690625  .00001516  00000+0  32941-3 0  9999", "line2": "2 33805  74.0305 329.7137 0060628 161.3863 198.9539 14.57818572890865"}}, "geometry": {"type": "Point", "coordinates": [147.88689366897572, 3.8729694794426517]}}, {"type": "Feature", "properties": {"norad_id": 33811, "name": "COSMOS 2251 DEB", "group": "cosmos-2251-debris", "lat": -73.54804727543706, "lon": -138.943381361645, "alt_km": 574.6803550277809, "timestamp": "2025-12-03T10:52:57.848674+00:00", "meta": {"OBJECT_NAME": "COSMOS 2251 DEB", "OBJECT_ID": "1993-036BC", "EPOCH": "2025-12-03T02:00:55.579104", "MEAN_MOTION": 15.04774914, "ECCENTRICITY": 0.0030846, "INCLINATION": 73.8374, "RA_OF_ASC_NODE": 322.676, "ARG_OF_PERICENTER": 44.7642, "MEAN_ANOMALY": 21.7521, "EPHEMERIS_TYPE": 0, "CLASSIFICATION_TYPE": "U", "NORAD_CAT_ID": 33811, "ELEMENT_SET_NO": 999, "REV_AT_EPOCH": 89873, "BSTAR": 0.0017624, "MEAN_MOTION_DOT": 0.00025175, "MEAN_MOTION_DDOT": 0}, "tle": {"line1": "1 33811U 93036BC  25337.08397661  .00025175  00000+0  17624-2 0  9998", "line2": "2 33811  73.8374 322.6760 0030846  44.7642  21.7521 15.04774914898739"}}, "geometry": {"type": "Point", "coordinates": [-138.943381361645, -73.54804727543706]}}, {"type": "Feature", "properties": {"norad_id": 33815, "name": "COSMOS 2251 DEB", "group": "cosmos-2251-debris", "lat": -42.41123608098389, "lon": -179.20314578234175, "alt_km": 526.9211263686948, "timestamp": "2025-12-03T10:52:57.848692+00:00", "meta": {"OBJECT_NAME": "COSMOS 2251 DEB", "OBJECT_ID": "1993-036BG", "EPOCH": "2025-12-02T16:18:27.107424", "MEAN_MOTION": 15.14565673, "ECCENTRICITY": 0.0004573, "INCLINATION": 73.956, "RA_OF_ASC_NODE": 197.654, "ARG_OF_PERICENTER": 247.3813, "MEAN_ANOMALY": 169.63, "EPHEMERIS_TYPE": 0, "CLASSIFICATION_TYPE": "U", "NORAD_CAT_ID": 33815, "ELEMENT_SET_NO": 999, "REV_AT_EPOCH": 88218, "BSTAR": 0.0066032, "MEAN_MOTION_DOT": 0.00123948, "MEAN_MOTION_DDOT": 0}, "tle": {"line1": "1 33815U 93036BG  25336.67948041  .00123948  00000+0  66032-2 0  9994", "line2": "2 33815  73.9560 197.6540 0004573 247.3813 169.6300 15.14565673882186"}}, "geometry": {"type": "Point", "coordinates": [-179.20314578234175, -42.41123608098389]}}, {"type": "Feature", "properties": {"norad_id": 33816, "name": "COSMOS 2251 DEB", "group": "cosmos-2251-debris", "lat": -7.727298575903956, "lon": 118.88767226312376, "alt_km": 1116.4036564475773, "timestamp": "2025-12-03T10:52:57.848705+00:00", "meta": {"OBJECT_NAME": "COSMOS 2251 DEB", "OBJECT_ID": "1993-036BH", "EPOCH": "2025-12-02T19:17:05.120736", "MEAN_MOTION": 13.817588, "ECCENTRICITY": 0.0265327, "INCLINATION": 73.8936, "RA_OF_ASC_NODE": 122.2358, "ARG_OF_PERICENTER": 137.0947, "MEAN_ANOMALY": 225.1215, "EPHEMERIS_TYPE": 0, "CLASSIFICATION_TYPE": "U", "NORAD_CAT_ID": 33816, "ELEMENT_SET_NO": 999, "REV_AT_EPOCH": 84536, "BSTAR": 0.0007319, "MEAN_MOTION_DOT": 1.002e-05, "MEAN_MOTION_DDOT": 0}, "tle": {"line1": "1 33816U 93036BH  25336.80353149  .00001002  00000+0  73190-3 0  9999", "line2": "2 33816  73.8936 122.2358 0265327 137.0947 225.1215 13.81758800845363"}}, "geometry": {"type": "Point", "coordinates": [118.88767226312376, -7.727298575903956]}}, {"type": "Feature", "properties": {"norad_id": 33818, "name": "COSMOS 2251 DEB", "group": "cosmos-2251-debris", "lat": -7.165611480041498, "lon": -176.6366987830222, "alt_km": 555.6191582836536, "timestamp": "2025-12-03T10:52:57.848716+00:00", "meta": {"OBJECT_NAME": "COSMOS 2251 DEB", "OBJECT_ID": "1993-036BK", "EPOCH": "2025-12-03T00:29:53.960352", "MEAN_MOTION": 15.11369396, "ECCENTRICITY": 0.0029218, "INCLINATION": 74.0757, "RA_OF_ASC_NODE": 186.3128, "ARG_OF_PERICENTER": 178.0968, "MEAN_ANOMALY": 341.3277, "EPHEMERIS_TYPE": 0, "CLASSIFICATION_TYPE": "U", "NORAD_CAT_ID": 33818, "ELEMENT_SET_NO": 999, "REV_AT_EPOCH": 89715, "BSTAR": 0.0025933, "MEAN_MOTION_DOT": 0.00044446, "MEAN_MOTION_DDOT": 0}, "tle": {"line1": "1 33818U 93036BK  25337.02076343  .00044446  00000+0  25933-2 0  9994", "line2": "2 33818  74.0757 186.3128 0029218 178.0968 341.3277 15.11369396897156"}}, "geometry": {"type": "Point", "coordinates": [-176.6366987830222, -7.165611480041498]}}, {"type": "Feature", "properties": {"norad_id": 33819, "name": "COSMOS 2251 DEB", "group": "cosmos-2251-debris", "lat": -71.80440030438973, "lon": 106.25030391152589, "alt_km": 854.0528600738635, "timestamp": "2025-12-03T10:52:57.848727+00:00", "meta": {"OBJECT_NAME": "COSMOS 2251 DEB", "OBJECT_ID": "1993-036BL", "EPOCH": "2025-12-03T03:39:50.743296", "MEAN_MOTION": 14.32166373, "ECCENTRICITY": 0.008875, "INCLINATION": 74.1799, "RA_OF_ASC_NODE": 227.185, "ARG_OF_PERICENTER": 91.4738, "MEAN_ANOMALY": 59.1233, "EPHEMERIS_TYPE": 0, "CLASSIFICATION_TYPE": "U", "NORAD_CAT_ID": 33819, "ELEMENT_SET_NO": 999, "REV_AT_EPOCH": 87358, "BSTAR": 0.00086217, "MEAN_MOTION_DOT": 2.401e-05, "MEAN_MOTION_DDOT": 0}, "tle": {"line1": "1 33819U 93036BL  25337.15267064  .00002401  00000+0  86217-3 0  9999", "line2": "2 33819  74.1799 227.1850 0088750  91.4738  59.1233 14.32166373873588"}}, "geometry": {"type": "Point", "coordinates": [106.25030391152589, -71.80440030438973]}}, {"type": "Feature", "properties": {"norad_id": 33821, "name": "COSMOS 2251 DEB", "group": "cosmos-2251-debris", "lat": 72.0927097778907, "lon": -135.1354702261976, "alt_km": 501.6861436419049, "timestamp": "2025-12-03T10:52:57.848739+00:00", "meta": {"OBJECT_NAME": "COSMOS 2251 DEB", "OBJECT_ID": "1993-036BN", "EPOCH": "2025-12-02T23:29:48.149664", "MEAN_MOTION": 15.24429446, "ECCENTRICITY": 0.0054398, "INCLINATION": 74.0298, "RA_OF_ASC_NODE": 163.4571, "ARG_OF_PERICENTER": 199.5876, "MEAN_ANOMALY": 160.3235, "EPHEMERIS_TYPE": 0, "CLASSIFICATION_TYPE": "U", "NORAD_CAT_ID": 33821, "ELEMENT_SET_NO": 999, "REV_AT_EPOCH": 74852, "BSTAR": 0.0013978, "MEAN_MOTION_DOT": 0.000359, "MEAN_MOTION_DDOT": 0}, "tle": {"line1": "1 33821U 93036BN  25336.97902951  .00035900  00000+0  13978-2 0  9995", "line2": "2 33821  74.0298 163.4571 0054398 199.5876 160.3235 15.24429446748527"}}, "geometry": {"type": "Point", "coordinates": [-135.1354702261976, 72.0927097778907]}}, {"type": "Feature", "properties": {"norad_id": 33822, "name": "COSMOS 2251 DEB", "group": "cosmos-2251-debris", "lat": 8.46837793292472, "lon": -147.48800926586728, "alt_km": 887.8255570938645, "timestamp": "2025-12-03T10:52:57.848750+00:00", "meta": {"OBJECT_NAME": "COSMOS 2251 DEB", "OBJECT_ID": "1993-036BP", "EPOCH": "2025-12-03T02:57:46.238112", "MEAN_MOTION": 14.12993779, "ECCENTRICITY": 0.015406, "INCLINATION": 74.0698, "RA_OF_ASC_NODE": 210.6571, "ARG_OF_PERICENTER": 259.1993, "MEAN_ANOMALY": 230.1073, "EPHEMERIS_TYPE": 0, "CLASSIFICATION_TYPE": "U", "NORAD_CAT_ID": 33822, "ELEMENT_SET_NO": 999, "REV_AT_EPOCH": 85918, "BSTAR": 0.0016345, "MEAN_MOTION_DOT": 3.387e-05, "MEAN_MOTION_DDOT": 0}, "tle": {"line1": "1 33822U 93036BP  25337.12345183  .00003387  00000+0  16345-2 0  9997", "line2": "2 33822  74.0698 210.6571 0154060 259.1993 230.1073 14.12993779859189"}}, "geometry": {"type": "Point", "coordinates": [-147.48800926586728, 8.46837793292472]}}, {"type": "Feature", "properties": {"norad_id": 33823, "name": "COSMOS 2251 DEB", "group": "cosmos-2251-debris", "lat": -55.971467205550034, "lon": 140.11924431562446, "alt_km": 753.4526221013166, "timestamp": "2025-12-03T10:52:57.848760+00:00", "meta": {"OBJECT_NAME": "COSMOS 2251 DEB", "OBJECT_ID": "1993-036BQ", "EPOCH": "2025-12-02T23:44:06.734112", "MEAN_MOTION": 13.98911106, "ECCENTRICITY": 0.0209251, "INCLINATION": 73.8087, "RA_OF_ASC_NODE": 166.4187, "ARG_OF_PERICENTER": 293.1512, "MEAN_ANOMALY": 188.6499, "EPHEMERIS_TYPE": 0, "CLASSIFICATION_TYPE": "U", "NORAD_CAT_ID": 33823, "ELEMENT_SET_NO": 999, "REV_AT_EPOCH": 85473, "BSTAR": 0.00089982, "MEAN_MOTION_DOT": 1.539e-05, "MEAN_MOTION_DDOT": 0}, "tle": {"line1": "1 33823U 93036BQ  25336.98896683  .00001539  00000+0  89982-3 0  9992", "line2": "2 33823  73.8087 166.4187 0209251 293.1512 188.6499 13.98911106854730"}}, "geometry": {"type": "Point", "coordinates": [140.11924431562446, -55.971467205550034]}}]}